QIANFAN-81              
1 63167U 25046J   25347.30372267  .00000193  00000+0  27998-3 0  9991
2 63167  88.9763 319.8133 0016304 115.0586 245.2259 13.51002663 47562
QIANFAN-82              
1 63168U 25046K   25347.26371949  .00000172  00000+0  24775-3 0  9990
2 63168  88.9763 319.8614 0014291 121.6082 238.6466 13.50975925 47547
QIANFAN-83              
1 63169U 25046L   25347.28663099  .00000223  00000+0  27293-3 0  9998
2 63169  88.9763 319.6343 0015890 108.8010 251.4873 13.61974707 47677
QIANFAN-84              
1 63170U 25046M   25347.29151918  .00000153  00000+0  21747-3 0  9993
2 63170  88.9762 319.9912 0017320 119.3004 240.9881 13.50986941 47474
QIANFAN-85              
1 63171U 25046N   25347.28828244  .00000190  00000+0  27609-3 0  9990
2 63171  88.9763 319.8633 0014666 120.6440 239.6160 13.50976575 47549
QIANFAN-86              
1 63172U 25046P   25347.29661000  .00000191  00000+0  27771-3 0  9998
2 63172  88.9765 319.7245 0012463 123.5211 236.7133 13.50976435 47623
QIANFAN-87              
1 63173U 25046Q   25347.26794016  .00000168  00000+0  24207-3 0  9995
2 63173  88.9761 319.8392 0013204 119.7482 240.4985 13.50974365 47554
QIANFAN-88              
1 63174U 25046R   25347.28426691  .00000180  00000+0  25957-3 0  9996
2 63174  88.9764 319.7920 0013435 127.0371 233.2012 13.50980809 47583
